{"type": "FeatureCollection", "features": [{"type": "Feature", "properties": {"norad_id": 66376, "name": "SHIYAN-32 01", "group": "last-30-days", "lat": 37.668773208991595, "lon": -12.139593898714482, "alt_km": 436.06339945441505, "timestamp": "2025-12-07T09:35:08.568715+00:00", "meta": {"OBJECT_NAME": "SHIYAN-32 01", "OBJECT_ID": "2025-255A", "EPOCH": "2025-12-06T22:08:25.797120", "MEAN_MOTION": 15.42499738, "ECCENTRICITY": 0.00134931, "INCLINATION": 52.9946, "RA_OF_ASC_NODE": 205.7381, "ARG_OF_PERICENTER": 23.9653, "MEAN_ANOMALY": 336.1976, "EPHEMERIS_TYPE": 0, "CLASSIFICATION_TYPE": "U", "NORAD_CAT_ID": 66376, "ELEMENT_SET_NO": 999, "REV_AT_EPOCH": 445, "BSTAR": 0.00062529432, "MEAN_MOTION_DOT": 0.00027289, "MEAN_MOTION_DDOT": 0}, "tle": {"line1": "1 66376U 25255A   25340.92252080  .00027289  00000+0  62529-3 0  9993", "line2": "2 66376  52.9946 205.7381 0013493  23.9653 336.1976 15.42499738  4459"}}, "geometry": {"type": "Point", "coordinates": [-12.139593898714482, 37.668773208991595]}}, {"type": "Feature", "properties": {"norad_id": 66377, "name": "CZ-11 DEB", "group": "last-30-days", "lat": -27.729943194930133, "lon": 46.659277655059185, "alt_km": 447.1352721454841, "timestamp": "2025-12-07T09:35:08.568771+00:00", "meta": {"OBJECT_NAME": "CZ-11 DEB", "OBJECT_ID": "2025-255B", "EPOCH": "2025-12-06T21:46:52.533408", "MEAN_MOTION": 15.43949706, "ECCENTRICITY": 0.00137844, "INCLINATION": 52.9948, "RA_OF_ASC_NODE": 205.6433, "ARG_OF_PERICENTER": 21.1764, "MEAN_ANOMALY": 338.9809, "EPHEMERIS_TYPE": 0, "CLASSIFICATION_TYPE": "U", "NORAD_CAT_ID": 66377, "ELEMENT_SET_NO": 999, "REV_AT_EPOCH": 431, "BSTAR": 0.001075117, "MEAN_MOTION_DOT": 0.00049758, "MEAN_MOTION_DDOT": 0}, "tle": {"line1": "1 66377U 25255B   25340.90755247  .00049758  00000+0  10751-2 0  9999", "line2": "2 66377  52.9948 205.6433 0013784  21.1764 338.9809 15.43949706  4311"}}, "geometry": {"type": "Point", "coordinates": [46.659277655059185, -27.729943194930133]}}, {"type": "Feature", "properties": {"norad_id": 66378, "name": "SHIYAN-32 02", "group": "last-30-days", "lat": -49.677115221789045, "lon": 85.93773001527414, "alt_km": 441.80863736752235, "timestamp": "2025-12-07T09:35:08.568811+00:00", "meta": {"OBJECT_NAME": "SHIYAN-32 02", "OBJECT_ID": "2025-255C", "EPOCH": "2025-12-06T23:10:42.765600", "MEAN_MOTION": 15.44610835, "ECCENTRICITY": 0.00120614, "INCLINATION": 52.9926, "RA_OF_ASC_NODE": 205.2933, "ARG_OF_PERICENTER": 16.5576, "MEAN_ANOMALY": 343.5821, "EPHEMERIS_TYPE": 0, "CLASSIFICATION_TYPE": "U", "NORAD_CAT_ID": 66378, "ELEMENT_SET_NO": 999, "REV_AT_EPOCH": 432, "BSTAR": 0.001230063, "MEAN_MOTION_DOT": 0.0005831, "MEAN_MOTION_DDOT": 0}, "tle": {"line1": "1 66378U 25255C   25340.96577275  .00058310  00000+0  12301-2 0  9996", "line2": "2 66378  52.9926 205.2933 0012061  16.5576 343.5821 15.44610835  4321"}}, "geometry": {"type": "Point", "coordinates": [85.93773001527414, -49.677115221789045]}}, {"type": "Feature", "properties": {"norad_id": 66379, "name": "SHIYAN-32 03", "group": "last-30-days", "lat": 10.739772730550873, "lon": 15.175895414759113, "alt_km": 445.18561139875965, "timestamp": "2025-12-07T09:35:08.568826+00:00", "meta": {"OBJECT_NAME": "SHIYAN-32 03", "OBJECT_ID": "2025-255D", "EPOCH": "2025-12-06T21:59:08.045376", "MEAN_MOTION": 15.42826531, "ECCENTRICITY": 0.00155432, "INCLINATION": 52.9954, "RA_OF_ASC_NODE": 205.6985, "ARG_OF_PERICENTER": 24.908, "MEAN_ANOMALY": 335.2671, "EPHEMERIS_TYPE": 0, "CLASSIFICATION_TYPE": "U", "NORAD_CAT_ID": 66379, "ELEMENT_SET_NO": 999, "REV_AT_EPOCH": 433, "BSTAR": 0.00053737238, "MEAN_MOTION_DOT": 0.00023667, "MEAN_MOTION_DDOT": 0}, "tle": {"line1": "1 66379U 25255D   25340.91606534  .00023667  00000+0  53737-3 0  9999", "line2": "2 66379  52.9954 205.6985 0015543  24.9080 335.2671 15.42826531  4337"}}, "geometry": {"type": "Point", "coordinates": [15.175895414759113, 10.739772730550873]}}, {"type": "Feature", "properties": {"norad_id": 66380, "name": "STARLINK-35139", "group": "last-30-days", "lat": 46.75974209523506, "lon": -17.31372002315274, "alt_km": 440.2637225414319, "timestamp": "2025-12-07T09:35:08.568839+00:00", "meta": {"OBJECT_NAME": "STARLINK-35139", "OBJECT_ID": "2025-257A", "EPOCH": "2025-12-06T22:23:48.405696", "MEAN_MOTION": 15.39621093, "ECCENTRICITY": 0.00014798, "INCLINATION": 53.1601, "RA_OF_ASC_NODE": 292.0163, "ARG_OF_PERICENTER": 11.8628, "MEAN_ANOMALY": 348.2411, "EPHEMERIS_TYPE": 0, "CLASSIFICATION_TYPE": "U", "NORAD_CAT_ID": 66380, "ELEMENT_SET_NO": 999, "REV_AT_EPOCH": 541, "BSTAR": 0.00088926062, "MEAN_MOTION_DOT": 0.00035336, "MEAN_MOTION_DDOT": 0}, "tle": {"line1": "1 66380U 25257A   25340.93319914  .00035336  00000+0  88926-3 0  9992", "line2": "2 66380  53.1601 292.0163 0001479  11.8628 348.2411 15.39621093  5413"}}, "geometry": {"type": "Point", "coordinates": [-17.31372002315274, 46.75974209523506]}}, {"type": "Feature", "properties": {"norad_id": 66381, "name": "STARLINK-35158", "group": "last-30-days", "lat": 47.70727753177853, "lon": -14.682968888793416, "alt_km": 439.54982172741893, "timestamp": "2025-12-07T09:35:08.568851+00:00", "meta": {"OBJECT_NAME": "STARLINK-35158", "OBJECT_ID": "2025-257B", "EPOCH": "2025-12-06T22:23:19.370976", "MEAN_MOTION": 15.39700029, "ECCENTRICITY": 0.00013301, "INCLINATION": 53.1596, "RA_OF_ASC_NODE": 292.014, "ARG_OF_PERICENTER": 86.7768, "MEAN_ANOMALY": 273.3389, "EPHEMERIS_TYPE": 0, "CLASSIFICATION_TYPE": "U", "NORAD_CAT_ID": 66381, "ELEMENT_SET_NO": 999, "REV_AT_EPOCH": 547, "BSTAR": 0.0018981083, "MEAN_MOTION_DOT": 0.0007649, "MEAN_MOTION_DDOT": 0}, "tle": {"line1": "1 66381U 25257B   25340.93286309  .00076490  00000+0  18981-2 0  9993", "line2": "2 66381  53.1596 292.0140 0001330  86.7768 273.3389 15.39700029  5479"}}, "geometry": {"type": "Point", "coordinates": [-14.682968888793416, 47.70727753177853]}}, {"type": "Feature", "properties": {"norad_id": 66382, "name": "STARLINK-35639", "group": "last-30-days", "lat": 53.108713677606076, "lon": 22.57610263566697, "alt_km": 438.59156192150476, "timestamp": "2025-12-07T09:35:08.568862+00:00", "meta": {"OBJECT_NAME": "STARLINK-35639", "OBJECT_ID": "2025-257C", "EPOCH": "2025-12-06T22:17:05.389440", "MEAN_MOTION": 15.39725479, "ECCENTRICITY": 0.0001481, "INCLINATION": 53.1613, "RA_OF_ASC_NODE": 291.9858, "ARG_OF_PERICENTER": 85.5888, "MEAN_ANOMALY": 274.5286, "EPHEMERIS_TYPE": 0, "CLASSIFICATION_TYPE": "U", "NORAD_CAT_ID": 66382, "ELEMENT_SET_NO": 999, "REV_AT_EPOCH": 547, "BSTAR": 0.0016871172, "MEAN_MOTION_DOT": 0.00067923, "MEAN_MOTION_DDOT": 0}, "tle": {"line1": "1 66382U 25257C   25340.92853460  .00067923  00000+0  16871-2 0  9998", "line2": "2 66382  53.1613 291.9858 0001481  85.5888 274.5286 15.39725479  5476"}}, "geometry": {"type": "Point", "coordinates": [22.57610263566697, 53.108713677606076]}}, {"type": "Feature", "properties": {"norad_id": 66383, "name": "STARLINK-35690", "group": "last-30-days", "lat": 45.41839744032357, "lon": 60.18660387916816, "alt_km": 440.39390552190343, "timestamp": "2025-12-07T09:35:08.568873+00:00", "meta": {"OBJECT_NAME": "STARLINK-35690", "OBJECT_ID": "2025-257D", "EPOCH": "2025-12-07T00:00:02.000160", "MEAN_MOTION": 15.39586671, "ECCENTRICITY": 0.00013014, "INCLINATION": 53.1612, "RA_OF_ASC_NODE": 291.596, "ARG_OF_PERICENTER": 95.4966, "MEAN_ANOMALY": 326.7229, "EPHEMERIS_TYPE": 0, "CLASSIFICATION_TYPE": "U", "NORAD_CAT_ID": 66383, "ELEMENT_SET_NO": 999, "REV_AT_EPOCH": 557, "BSTAR": 0.00050903406, "MEAN_MOTION_DOT": 0.00019992, "MEAN_MOTION_DDOT": 0}, "tle": {"line1": "1 66383U 25257D   25341.00002315  .00019992  00000+0  50903-3 0  9992", "line2": "2 66383  53.1612 291.5960 0001301  95.4966 326.7229 15.39586671  5571"}}, "geometry": {"type": "Point", "coordinates": [60.18660387916816, 45.41839744032357]}}, {"type": "Feature", "properties": {"norad_id": 66384, "name": "STARLINK-35662", "group": "last-30-days", "lat": 44.43679000802937, "lon": 62.39618340943462, "alt_km": 440.6770948075009, "timestamp": "2025-12-07T09:35:08.568884+00:00", "meta": {"OBJECT_NAME": "STARLINK-35662", "OBJECT_ID": "2025-257E", "EPOCH": "2025-12-07T00:00:02.000160", "MEAN_MOTION": 15.39584144, "ECCENTRICITY": 0.00011502, "INCLINATION": 53.1612, "RA_OF_ASC_NODE": 291.5931, "ARG_OF_PERICENTER": 91.9245, "MEAN_ANOMALY": 332.1449, "EPHEMERIS_TYPE": 0, "CLASSIFICATION_TYPE": "U", "NORAD_CAT_ID": 66384, "ELEMENT_SET_NO": 999, "REV_AT_EPOCH": 557, "BSTAR": 0.00046387985, "MEAN_MOTION_DOT": 0.00018178, "MEAN_MOTION_DDOT": 0}, "tle": {"line1": "1 66384U 25257E   25341.00002315  .00018178  00000+0  46388-3 0  9990", "line2": "2 66384  53.1612 291.5931 0001150  91.9245 332.1449 15.39584144  5571"}}, "geometry": {"type": "Point", "coordinates": [62.39618340943462, 44.43679000802937]}}, {"type": "Feature", "properties": {"norad_id": 66385, "name": "STARLINK-35659", "group": "last-30-days", "lat": 53.00906500545947, "lon": 25.359949774217792, "alt_km": 438.1482717769795, "timestamp": "2025-12-07T09:35:08.568895+00:00", "meta": {"OBJECT_NAME": "STARLINK-35659", "OBJECT_ID": "2025-257F", "EPOCH": "2025-12-06T22:16:38.240832", "MEAN_MOTION": 15.39680532, "ECCENTRICITY": 0.00024153, "INCLINATION": 53.16, "RA_OF_ASC_NODE": 291.9854, "ARG_OF_PERICENTER": 81.1731, "MEAN_ANOMALY": 278.9548, "EPHEMERIS_TYPE": 0, "CLASSIFICATION_TYPE": "U", "NORAD_CAT_ID": 66385, "ELEMENT_SET_NO": 999, "REV_AT_EPOCH": 547, "BSTAR": 0.0014839534, "MEAN_MOTION_DOT": 0.00059543, "MEAN_MOTION_DDOT": 0}, "tle": {"line1": "1 66385U 25257F   25340.92822038  .00059543  00000+0  14840-2 0  9991", "line2": "2 66385  53.1600 291.9854 0002415  81.1731 278.9548 15.39680532  5477"}}, "geometry": {"type": "Point", "coordinates": [25.359949774217792, 53.00906500545947]}}]}